0 CZ-2C DEB
1 28482U 04046D   13281.45210336  .00001155  00000-0  41891-3 0  4709
2 28482 098.6241 231.9365 0142505 252.5652 256.2041 14.29846830462848
0 CZ-2C DEB
1 28482U 04046D   13283.47873082  .00001284  00000-0  46358-3 0  4713
2 28482 098.6242 233.9450 0142436 246.5446 248.2572 14.29858815463132
0 CZ-2C DEB
1 28482U 04046D   13285.84203581  .00001309  00000-0  47231-3 0  4727
2 28482 098.6247 236.2869 0142421 239.5212 173.4419 14.29864000463473
0 CZ-2C DEB
1 28482U 04046D   13287.93967046  .00001631  00000-0  58420-3 0  4733
2 28482 098.6253 238.3655 0142434 233.2876 171.1259 14.29872328463779
0 CZ-2C DEB
1 28482U 04046D   13290.47748039  .00002004  00000-0  71368-3 0  4747
2 28482 098.6253 240.8800 0142415 225.8197 274.6584 14.29881749464139
0 CZ-2C DEB
1 28482U 04046D   13293.12178363  .00002065  00000-0  73490-3 0  4755
2 28482 098.6259 243.5008 0142437 217.9632 206.5377 14.29888747464516
0 CZ-2C DEB
1 28482U 04046D   13295.44741082  .00001784  00000-0  63680-3 0  4764
2 28482 098.6260 245.8069 0142551 210.9970 298.1052 14.29899169464848
